STARLINK-3276           
1 50189U 21125AK  26068.90295688  .00029472  00000+0  16874-2 0  9994
2 50189  53.2144 247.2888 0004579 141.1703 218.9620 15.12414704236687
PIESAT B                
1 56154U 23047B   26068.57334719  .00003244  00000+0  18082-3 0  9992
2 56154  97.5017 257.1462 0001556 107.7309 252.4093 15.14300167162724
